{
  "type": "FeatureCollection",
  "features": [
    {
      "type": "Feature",
      "properties": {
        "norad_id": 64751,
        "name": "PROGRESS-MS 31",
        "group": "stations",
        "lat": 26.35770410261452,
        "lon": 168.46104968805992,
        "alt_km": 416.95230914156946,
        "timestamp": "2025-12-12T03:50:51.196248+00:00",
        "meta_object_name": "PROGRESS-MS 31",
        "meta_object_id": "2025-146A",
        "meta_epoch": "2025-12-11T12:13:14.837664",
        "meta_mean_motion": 15.49508857,
        "meta_eccentricity": 0.00033166,
        "meta_inclination": 51.6308,
        "meta_ra_of_asc_node": 148.5724,
        "meta_arg_of_pericenter": 235.7177,
        "meta_mean_anomaly": 124.3498,
        "meta_ephemeris_type": 0,
        "meta_classification_type": "U",
        "meta_norad_cat_id": 64751,
        "meta_element_set_no": 999,
        "meta_rev_at_epoch": 675,
        "meta_bstar": 0.00026544961,
        "meta_mean_motion_dot": 0.00014464,
        "meta_mean_motion_ddot": 0,
        "tle_line1": "1 64751U 25146A   25345.50919951  .00014464  00000+0  26545-3 0  9992",
        "tle_line2": "2 64751  51.6308 148.5724 0003316 235.7177 124.3498 15.49508857  6755"
      },
      "geometry": {
        "type": "Point",
        "coordinates": [
          168.46104968805992,
          26.35770410261452
        ]
      }
    },
    {
      "type": "Feature",
      "properties": {
        "norad_id": 64786,
        "name": "TIANZHOU-9",
        "group": "stations",
        "lat": 32.99383520625895,
        "lon": 152.90019049467793,
        "alt_km": 385.6572814227811,
        "timestamp": "2025-12-12T03:50:51.196258+00:00",
        "meta_object_name": "TIANZHOU-9",
        "meta_object_id": "2025-149A",
        "meta_epoch": "2025-12-11T11:56:35.385792",
        "meta_mean_motion": 15.59100786,
        "meta_eccentricity": 0.00085964,
        "meta_inclination": 41.4684,
        "meta_ra_of_asc_node": 24.2481,
        "meta_arg_of_pericenter": 20.0947,
        "meta_mean_anomaly": 340.0228,
        "meta_ephemeris_type": 0,
        "meta_classification_type": "U",
        "meta_norad_cat_id": 64786,
        "meta_element_set_no": 999,
        "meta_rev_at_epoch": 25530,
        "meta_bstar": 0.00045432813,
        "meta_mean_motion_dot": 0.00036404,
        "meta_mean_motion_ddot": 0,
        "tle_line1": "1 64786U 25149A   25345.49763178  .00036404  00000+0  45433-3 0  9994",
        "tle_line2": "2 64786  41.4684  24.2481 0008596  20.0947 340.0228 15.59100786255307"
      },
      "geometry": {
        "type": "Point",
        "coordinates": [
          152.90019049467793,
          32.99383520625895
        ]
      }
    },
    {
      "type": "Feature",
      "properties": {
        "norad_id": 65077,
        "name": "CREW DRAGON 11",
        "group": "stations",
        "lat": 26.357705034492426,
        "lon": 168.46105068674282,
        "alt_km": 416.95230901101604,
        "timestamp": "2025-12-12T03:50:51.196268+00:00",
        "meta_object_name": "CREW DRAGON 11",
        "meta_object_id": "2025-166A",
        "meta_epoch": "2025-12-11T12:13:14.837664",
        "meta_mean_motion": 15.49508857,
        "meta_eccentricity": 0.00033166,
        "meta_inclination": 51.6308,
        "meta_ra_of_asc_node": 148.5724,
        "meta_arg_of_pericenter": 235.7177,
        "meta_mean_anomaly": 124.3498,
        "meta_ephemeris_type": 0,
        "meta_classification_type": "U",
        "meta_norad_cat_id": 65077,
        "meta_element_set_no": 999,
        "meta_rev_at_epoch": 214,
        "meta_bstar": 0.00026544961,
        "meta_mean_motion_dot": 0.00014464,
        "meta_mean_motion_ddot": 0,
        "tle_line1": "1 65077U 25166A   25345.50919951  .00014464  00000+0  26545-3 0  9996",
        "tle_line2": "2 65077  51.6308 148.5724 0003316 235.7177 124.3498 15.49508857  2146"
      },
      "geometry": {
        "type": "Point",
        "coordinates": [
          168.46105068674282,
          26.357705034492426
        ]
      }
    },
    {
      "type": "Feature",
      "properties": {
        "norad_id": 65304,
        "name": "DRAGON CRS-33",
        "group": "stations",
        "lat": 26.357705500430793,
        "lon": 168.46105118608367,
        "alt_km": 416.9523089457398,
        "timestamp": "2025-12-12T03:50:51.196278+00:00",
        "meta_object_name": "DRAGON CRS-33",
        "meta_object_id": "2025-186A",
        "meta_epoch": "2025-12-11T12:13:14.837664",
        "meta_mean_motion": 15.49508857,
        "meta_eccentricity": 0.00033166,
        "meta_inclination": 51.6308,
        "meta_ra_of_asc_node": 148.5724,
        "meta_arg_of_pericenter": 235.7177,
        "meta_mean_anomaly": 124.3498,
        "meta_ephemeris_type": 0,
        "meta_classification_type": "U",
        "meta_norad_cat_id": 65304,
        "meta_element_set_no": 999,
        "meta_rev_at_epoch": 11,
        "meta_bstar": 0.00026544961,
        "meta_mean_motion_dot": 0.00014464,
        "meta_mean_motion_ddot": 0,
        "tle_line1": "1 65304U 25186A   25345.50919951  .00014464  00000+0  26545-3 0  9991",
        "tle_line2": "2 65304  51.6308 148.5724 0003316 235.7177 124.3498 15.49508857   114"
      },
      "geometry": {
        "type": "Point",
        "coordinates": [
          168.46105118608367,
          26.357705500430793
        ]
      }
    },
    {
      "type": "Feature",
      "properties": {
        "norad_id": 65586,
        "name": "PROGRESS-MS 32",
        "group": "stations",
        "lat": 26.35770596636913,
        "lon": 168.46105168542448,
        "alt_km": 416.9523088804608,
        "timestamp": "2025-12-12T03:50:51.196288+00:00",
        "meta_object_name": "PROGRESS-MS 32",
        "meta_object_id": "2025-204A",
        "meta_epoch": "2025-12-11T12:13:14.837664",
        "meta_mean_motion": 15.49508857,
        "meta_eccentricity": 0.00033166,
        "meta_inclination": 51.6308,
        "meta_ra_of_asc_node": 148.5724,
        "meta_arg_of_pericenter": 235.7177,
        "meta_mean_anomaly": 124.3498,
        "meta_ephemeris_type": 0,
        "meta_classification_type": "U",
        "meta_norad_cat_id": 65586,
        "meta_element_set_no": 999,
        "meta_rev_at_epoch": 27,
        "meta_bstar": 0.00026544961,
        "meta_mean_motion_dot": 0.00014464,
        "meta_mean_motion_ddot": 0,
        "tle_line1": "1 65586U 25204A   25345.50919951  .00014464  00000+0  26545-3 0  9994",
        "tle_line2": "2 65586  51.6308 148.5724 0003316 235.7177 124.3498 15.49508857   273"
      },
      "geometry": {
        "type": "Point",
        "coordinates": [
          168.46105168542448,
          26.35770596636913
        ]
      }
    },
    {
      "type": "Feature",
      "properties": {
        "norad_id": 65616,
        "name": "CYGNUS NG-23",
        "group": "stations",
        "lat": 26.357706385714174,
        "lon": 168.46105213483182,
        "alt_km": 416.9523088217129,
        "timestamp": "2025-12-12T03:50:51.196297+00:00",
        "meta_object_name": "CYGNUS NG-23",
        "meta_object_id": "2025-208A",
        "meta_epoch": "2025-12-11T12:13:14.837664",
        "meta_mean_motion": 15.49508857,
        "meta_eccentricity": 0.00033166,
        "meta_inclination": 51.6308,
        "meta_ra_of_asc_node": 148.5724,
        "meta_arg_of_pericenter": 235.7177,
        "meta_mean_anomaly": 124.3498,
        "meta_ephemeris_type": 0,
        "meta_classification_type": "U",
        "meta_norad_cat_id": 65616,
        "meta_element_set_no": 999,
        "meta_rev_at_epoch": 22,
        "meta_bstar": 0.00026544961,
        "meta_mean_motion_dot": 0.00014464,
        "meta_mean_motion_ddot": 0,
        "tle_line1": "1 65616U 25208A   25345.50919951  .00014464  00000+0  26545-3 0  9992",
        "tle_line2": "2 65616  51.6308 148.5724 0003316 235.7177 124.3498 15.49508857   222"
      },
      "geometry": {
        "type": "Point",
        "coordinates": [
          168.46105213483182,
          26.357706385714174
        ]
      }
    },
    {
      "type": "Feature",
      "properties": {
        "norad_id": 65729,
        "name": "DRAGONFLY",
        "group": "stations",
        "lat": -25.836148458386717,
        "lon": 116.16454906000631,
        "alt_km": 354.71307609180894,
        "timestamp": "2025-12-12T03:50:51.196308+00:00",
        "meta_object_name": "DRAGONFLY",
        "meta_object_id": "1998-067XH",
        "meta_epoch": "2025-12-11T11:12:11.633184",
        "meta_mean_motion": 15.7135593,
        "meta_eccentricity": 0.00066907,
        "meta_inclination": 51.6236,
        "meta_ra_of_asc_node": 142.2802,
        "meta_arg_of_pericenter": 270.0967,
        "meta_mean_anomaly": 89.9264,
        "meta_ephemeris_type": 0,
        "meta_classification_type": "U",
        "meta_norad_cat_id": 65729,
        "meta_element_set_no": 999,
        "meta_rev_at_epoch": 1296,
        "meta_bstar": 0.0019872701,
        "meta_mean_motion_dot": 0.00266351,
        "meta_mean_motion_ddot": 0,
        "tle_line1": "1 65729U 98067XH  25345.46680131  .00266351  00000+0  19873-2 0  9999",
        "tle_line2": "2 65729  51.6236 142.2802 0006690 270.0967  89.9264 15.71355930 12960"
      },
      "geometry": {
        "type": "Point",
        "coordinates": [
          116.16454906000631,
          -25.836148458386717
        ]
      }
    }
  ]
}